[{"OBJECT_NAME":"STARLINK-6147","OBJECT_ID":"2023-090V","EPOCH":"2025-10-21T08:19:18.381792","MEAN_MOTION":15.02541106,"ECCENTRICITY":0.00011595,"INCLINATION":43.0059,"RA_OF_ASC_NODE":311.7107,"ARG_OF_PERICENTER":269.0669,"MEAN_ANOMALY":91.0041,"EPHEMERIS_TYPE":0,"CLASSIFICATION_TYPE":"U","NORAD_CAT_ID":57120,"ELEMENT_SET_NO":999,"REV_AT_EPOCH":12945,"BSTAR":5.9078122e-5,"MEAN_MOTION_DOT":5.95e-6,"MEAN_MOTION_DDOT":0},{"OBJECT_NAME":"STARLINK-6152","OBJECT_ID":"2023-090W","EPOCH":"2025-10-21T11:08:23.278848","MEAN_MOTION":15.02539532,"ECCENTRICITY":9.05e-5,"INCLINATION":43.0039,"RA_OF_ASC_NODE":310.8689,"ARG_OF_PERICENTER":272.0804,"MEAN_ANOMALY":87.9935,"EPHEMERIS_TYPE":0,"CLASSIFICATION_TYPE":"U","NORAD_CAT_ID":57121,"ELEMENT_SET_NO":999,"REV_AT_EPOCH":12928,"BSTAR":4.9499e-5,"MEAN_MOTION_DOT":4.65e-6,"MEAN_MOTION_DDOT":0},{"OBJECT_NAME":"STARLINK-6149","OBJECT_ID":"2023-090X","EPOCH":"2025-10-21T01:42:01.268064","MEAN_MOTION":15.02531134,"ECCENTRICITY":0.00010186,"INCLINATION":43.0033,"RA_OF_ASC_NODE":313.0779,"ARG_OF_PERICENTER":273.0237,"MEAN_ANOMALY":87.0489,"EPHEMERIS_TYPE":0,"CLASSIFICATION_TYPE":"U","NORAD_CAT_ID":57122,"ELEMENT_SET_NO":999,"REV_AT_EPOCH":12941,"BSTAR":-2.0875522e-5,"MEAN_MOTION_DOT":-4.85e-6,"MEAN_MOTION_DDOT":0},{"OBJECT_NAME":"STARLINK-6154","OBJECT_ID":"2023-090Y","EPOCH":"2025-10-21T07:52:08.264352","MEAN_MOTION":15.0252984,"ECCENTRICITY":8.234e-5,"INCLINATION":43,"RA_OF_ASC_NODE":311.5649,"ARG_OF_PERICENTER":251.1668,"MEAN_ANOMALY":108.9085,"EPHEMERIS_TYPE":0,"CLASSIFICATION_TYPE":"U","NORAD_CAT_ID":57123,"ELEMENT_SET_NO":999,"REV_AT_EPOCH":12926,"BSTAR":7.6672567e-5,"MEAN_MOTION_DOT":8.32e-6,"MEAN_MOTION_DDOT":0},{"OBJECT_NAME":"STARLINK-6146","OBJECT_ID":"2023-090Z","EPOCH":"2025-10-21T11:13:11.335584","MEAN_MOTION":15.02549326,"ECCENTRICITY":0.0001246,"INCLINATION":43.005,"RA_OF_ASC_NODE":310.896,"ARG_OF_PERICENTER":261.4556,"MEAN_ANOMALY":98.6145,"EPHEMERIS_TYPE":0,"CLASSIFICATION_TYPE":"U","NORAD_CAT_ID":57124,"ELEMENT_SET_NO":999,"REV_AT_EPOCH":12947,"BSTAR":0.00018636,"MEAN_MOTION_DOT":2.315e-5,"MEAN_MOTION_DDOT":0},{"OBJECT_NAME":"STARLINK-6100","OBJECT_ID":"2023-090AA","EPOCH":"2025-10-21T07:31:54.061824","MEAN_MOTION":15.02538061,"ECCENTRICITY":0.0001226,"INCLINATION":43.0053,"RA_OF_ASC_NODE":299.3026,"ARG_OF_PERICENTER":274.1349,"MEAN_ANOMALY":85.9353,"EPHEMERIS_TYPE":0,"CLASSIFICATION_TYPE":"U","NORAD_CAT_ID":57125,"ELEMENT_SET_NO":999,"REV_AT_EPOCH":12940,"BSTAR":5.7231626e-5,"MEAN_MOTION_DOT":5.7e-6,"MEAN_MOTION_DDOT":0},{"OBJECT_NAME":"STARLINK-6167","OBJECT_ID":"2023-090AB","EPOCH":"2025-10-21T08:00:07.635744","MEAN_MOTION":15.025322,"ECCENTRICITY":0.00011195,"INCLINATION":43.0061,"RA_OF_ASC_NODE":311.6095,"ARG_OF_PERICENTER":290.2471,"MEAN_ANOMALY":69.8251,"EPHEMERIS_TYPE":0,"CLASSIFICATION_TYPE":"U","NORAD_CAT_ID":57126,"ELEMENT_SET_NO":999,"REV_AT_EPOCH":12945,"BSTAR":0.00017389461,"MEAN_MOTION_DOT":2.146e-5,"MEAN_MOTION_DDOT":0},{"OBJECT_NAME":"STARLINK-6165","OBJECT_ID":"2023-090AC","EPOCH":"2025-10-21T07:45:45.234144","MEAN_MOTION":15.02528921,"ECCENTRICITY":0.00015814,"INCLINATION":43.0044,"RA_OF_ASC_NODE":311.5271,"ARG_OF_PERICENTER":266.8487,"MEAN_ANOMALY":93.2174,"EPHEMERIS_TYPE":0,"CLASSIFICATION_TYPE":"U","NORAD_CAT_ID":57127,"ELEMENT_SET_NO":999,"REV_AT_EPOCH":12926,"BSTAR":-1.2851069e-5,"MEAN_MOTION_DOT":-3.77e-6,"MEAN_MOTION_DDOT":0},{"OBJECT_NAME":"STARLINK-6163","OBJECT_ID":"2023-090AD","EPOCH":"2025-10-21T07:55:20.468064","MEAN_MOTION":15.02532627,"ECCENTRICITY":9.172e-5,"INCLINATION":43.0038,"RA_OF_ASC_NODE":311.5822,"ARG_OF_PERICENTER":260.7598,"MEAN_ANOMALY":99.3141,"EPHEMERIS_TYPE":0,"CLASSIFICATION_TYPE":"U","NORAD_CAT_ID":57128,"ELEMENT_SET_NO":999,"REV_AT_EPOCH":12926,"BSTAR":-2.3941807e-5,"MEAN_MOTION_DOT":-5.27e-6,"MEAN_MOTION_DDOT":0},{"OBJECT_NAME":"STARLINK-6170","OBJECT_ID":"2023-090AE","EPOCH":"2025-10-21T07:52:40.810368","MEAN_MOTION":15.02535339,"ECCENTRICITY":0.00012648,"INCLINATION":43.0051,"RA_OF_ASC_NODE":299.4123,"ARG_OF_PERICENTER":267.2093,"MEAN_ANOMALY":92.8605,"EPHEMERIS_TYPE":0,"CLASSIFICATION_TYPE":"U","NORAD_CAT_ID":57129,"ELEMENT_SET_NO":999,"REV_AT_EPOCH":12940,"BSTAR":-1.917276e-6,"MEAN_MOTION_DOT":-2.3e-6,"MEAN_MOTION_DDOT":0},{"OBJECT_NAME":"STARLINK-6172","OBJECT_ID":"2023-090AF","EPOCH":"2025-10-21T07:47:21.252192","MEAN_MOTION":15.02504413,"ECCENTRICITY":0.00015863,"INCLINATION":43.0057,"RA_OF_ASC_NODE":311.5408,"ARG_OF_PERICENTER":273.7205,"MEAN_ANOMALY":86.3456,"EPHEMERIS_TYPE":0,"CLASSIFICATION_TYPE":"U","NORAD_CAT_ID":57130,"ELEMENT_SET_NO":999,"REV_AT_EPOCH":12926,"BSTAR":0.00049304185,"MEAN_MOTION_DOT":6.457e-5,"MEAN_MOTION_DDOT":0},{"OBJECT_NAME":"STARLINK-6162","OBJECT_ID":"2023-090AG","EPOCH":"2025-10-21T07:46:17.258304","MEAN_MOTION":15.02531526,"ECCENTRICITY":0.00012676,"INCLINATION":43.0052,"RA_OF_ASC_NODE":299.3781,"ARG_OF_PERICENTER":266.2202,"MEAN_ANOMALY":93.8496,"EPHEMERIS_TYPE":0,"CLASSIFICATION_TYPE":"U","NORAD_CAT_ID":57131,"ELEMENT_SET_NO":999,"REV_AT_EPOCH":12940,"BSTAR":7.5167002e-5,"MEAN_MOTION_DOT":8.12e-6,"MEAN_MOTION_DDOT":0},{"OBJECT_NAME":"STARLINK-6128","OBJECT_ID":"2023-090AH","EPOCH":"2025-10-21T09:13:28.659072","MEAN_MOTION":15.02552919,"ECCENTRICITY":0.0001036,"INCLINATION":43.0031,"RA_OF_ASC_NODE":311.1291,"ARG_OF_PERICENTER":253.8505,"MEAN_ANOMALY":106.2223,"EPHEMERIS_TYPE":0,"CLASSIFICATION_TYPE":"U","NORAD_CAT_ID":57132,"ELEMENT_SET_NO":999,"REV_AT_EPOCH":12927,"BSTAR":-0.00016468573,"MEAN_MOTION_DOT":-2.428e-5,"MEAN_MOTION_DDOT":0},{"OBJECT_NAME":"STARLINK-6143","OBJECT_ID":"2023-090AJ","EPOCH":"2025-10-21T09:02:49.970400","MEAN_MOTION":15.02551324,"ECCENTRICITY":0.00017342,"INCLINATION":43.0057,"RA_OF_ASC_NODE":298.9187,"ARG_OF_PERICENTER":273.3959,"MEAN_ANOMALY":86.6685,"EPHEMERIS_TYPE":0,"CLASSIFICATION_TYPE":"U","NORAD_CAT_ID":57133,"ELEMENT_SET_NO":999,"REV_AT_EPOCH":12941,"BSTAR":-0.00038130578,"MEAN_MOTION_DOT":-5.353e-5,"MEAN_MOTION_DDOT":0},{"OBJECT_NAME":"STARLINK-6133","OBJECT_ID":"2023-090AK","EPOCH":"2025-10-21T07:47:52.881504","MEAN_MOTION":15.02539483,"ECCENTRICITY":0.00011148,"INCLINATION":43.0058,"RA_OF_ASC_NODE":299.3872,"ARG_OF_PERICENTER":272.9966,"MEAN_ANOMALY":87.0749,"EPHEMERIS_TYPE":0,"CLASSIFICATION_TYPE":"U","NORAD_CAT_ID":57134,"ELEMENT_SET_NO":999,"REV_AT_EPOCH":12940,"BSTAR":7.7256102e-5,"MEAN_MOTION_DOT":8.4e-6,"MEAN_MOTION_DDOT":0},{"OBJECT_NAME":"STARLINK-6127","OBJECT_ID":"2023-090AL","EPOCH":"2025-10-21T07:12:45.926784","MEAN_MOTION":15.02452945,"ECCENTRICITY":0.00010267,"INCLINATION":43.005,"RA_OF_ASC_NODE":299.2038,"ARG_OF_PERICENTER":242.793,"MEAN_ANOMALY":117.2808,"EPHEMERIS_TYPE":0,"CLASSIFICATION_TYPE":"U","NORAD_CAT_ID":57135,"ELEMENT_SET_NO":999,"REV_AT_EPOCH":12940,"BSTAR":0.0013342014,"MEAN_MOTION_DOT":0.00017825,"MEAN_MOTION_DDOT":0}]
