STARLINK-6147           
1 57120U 23090V   25294.34674053  .00000595  00000+0  59078-4 0  9994
2 57120  43.0059 311.7107 0001159 269.0669  91.0041 15.02541106129453
STARLINK-6152           
1 57121U 23090W   25294.46415832  .00000465  00000+0  49499-4 0  9998
2 57121  43.0039 310.8689 0000905 272.0804  87.9935 15.02539532129287
STARLINK-6149           
1 57122U 23090X   25294.07084801 -.00000485  00000+0 -20876-4 0  9996
2 57122  43.0033 313.0779 0001018 273.0237  87.0489 15.02531134129414
STARLINK-6154           
1 57123U 23090Y   25294.32787343  .00000832  00000+0  76673-4 0  9996
2 57123  43.0000 311.5649 0000823 251.1668 108.9085 15.02529840129265
STARLINK-6146           
1 57124U 23090Z   25294.46749231  .00002315  00000+0  18636-3 0  9998
2 57124  43.0050 310.8960 0001246 261.4556  98.6145 15.02549326129475
STARLINK-6100           
1 57125U 23090AA  25294.31382016  .00000570  00000+0  57232-4 0  9994
2 57125  43.0053 299.3026 0001226 274.1349  85.9353 15.02538061129409
STARLINK-6167           
1 57126U 23090AB  25294.33342171  .00002146  00000+0  17389-3 0  9994
2 57126  43.0061 311.6095 0001119 290.2471  69.8251 15.02532200129451
STARLINK-6165           
1 57127U 23090AC  25294.32344021 -.00000377  00000+0 -12851-4 0  9996
2 57127  43.0044 311.5271 0001581 266.8487  93.2174 15.02528921129266
STARLINK-6163           
1 57128U 23090AD  25294.33009801 -.00000527  00000+0 -23942-4 0  9992
2 57128  43.0038 311.5822 0000917 260.7598  99.3141 15.02532627129269
STARLINK-6170           
1 57129U 23090AE  25294.32825012 -.00000230  00000+0 -19173-5 0  9995
2 57129  43.0051 299.4123 0001264 267.2093  92.8605 15.02535339129403
STARLINK-6172           
1 57130U 23090AF  25294.32455153  .00006457  00000+0  49304-3 0  9994
2 57130  43.0057 311.5408 0001586 273.7205  86.3456 15.02504413129262
STARLINK-6162           
1 57131U 23090AG  25294.32381086  .00000812  00000+0  75167-4 0  9994
2 57131  43.0052 299.3781 0001267 266.2202  93.8496 15.02531526129403
STARLINK-6128           
1 57132U 23090AH  25294.38435948 -.00002428  00000+0 -16469-3 0  9994
2 57132  43.0031 311.1291 0001036 253.8505 106.2223 15.02552919129273
STARLINK-6143           
1 57133U 23090AJ  25294.37696725 -.00005353  00000+0 -38131-3 0  9996
2 57133  43.0057 298.9187 0001734 273.3959  86.6685 15.02551324129411
STARLINK-6133           
1 57134U 23090AK  25294.32491761  .00000840  00000+0  77256-4 0  9991
2 57134  43.0058 299.3872 0001114 272.9966  87.0749 15.02539483129401
STARLINK-6127           
1 57135U 23090AL  25294.30053156  .00017825  00000+0  13342-2 0  9997
2 57135  43.0050 299.2038 0001026 242.7930 117.2808 15.02452945129404
